{"sightings":[
{"Category":"Drinking water","Place_Name":"Kishangad","Latitude":25.2465833,"Longitude":86.737905},
{"Category":"Drinking water","Place_Name":"Sitarampur ","Latitude":25.2373333,"Longitude":86.7279817},
{"Category":"Drinking Water","Place_Name":"Naunsar 1","Latitude":25.214345,"Longitude":86.719355},
{"Category":"Drinking Water","Place_Name":"Naunsar 2","Latitude":25.2098367,"Longitude":86.7176917},
{"Category":"Drinking Water","Place_Name":"Ashiya Chak Modi","Latitude":25.20344,"Longitude":86.715219},
{"Category":"Drinking Water","Place_Name":"Kamray Chauk","Latitude":25.1913995,"Longitude":86.7108171},
{"Category":"Drinking Water","Place_Name":"Masumganj Chauk","Latitude":25.1850602,"Longitude":86.7085205},
{"Category":"Drinking Water","Place_Name":"Masumganj ","Latitude":25.1763018,"Longitude":86.7088374},
{"Category":"Drinking water ","Place_Name":"Rahmatpur","Latitude":25.1626702,"Longitude":86.7014862},
{"Category":"Drinking water ","Place_Name":"Lakhanpur","Latitude":25.144777,"Longitude":86.692356},
{"Category":"Drinking water ","Place_Name":"Dhandhi Belary","Latitude":25.1308921,"Longitude":86.6868864},
{"Category":"Drinking Water","Place_Name":"Teghda fall","Latitude":25.1229696,"Longitude":86.6857674},
{"Category":"Drinking Water","Place_Name":"Daspsaiya Dharmshala, Belhar","Latitude":24.92283,"Longitude":86.65916},
{"Category":"Drinking Water","Place_Name":"Lulha Shivlok, Belhar","Latitude":24.92903,"Longitude":86.65447},
{"Category":"Drinking Water","Place_Name":"Dhouri Dharmshala, Belhar","Latitude":24.97037,"Longitude":86.63395},
{"Category":"Drinking Water","Place_Name":"Chandan Nagar Dharmshala, Belhar","Latitude":24.91070,"Longitude":86.65860},
{"Category":"Drinking Water","Place_Name":"Inter College Jilebiya, Belhar","Latitude":24.90129,"Longitude":86.66113},
{"Category":"Drinking Water","Place_Name":"Nimatad Belhar","Latitude":24.87757,"Longitude":86.66690},
{"Category":"Drinking Water","Place_Name":"Amma Tila","Latitude":24.81229,"Longitude":86.67598},
{"Category":"Drinking Water","Place_Name":"Dalsinghsarai Sarai Sewa Samiti","Latitude":24.79887,"Longitude":86.68547},
{"Category":"Drinking Water","Place_Name":"Abrakha Dharmshala, Chandan","Latitude":24.79537,"Longitude":86.68834},
{"Category":"Drinking Water","Place_Name":"Mega Camp Katoriya","Latitude":24.75183,"Longitude":86.70230},
{"Category":"Drinking Water","Place_Name":"Inrawaran Dharamshala,Katoria","Latitude":24.67502,"Longitude":86.70286},
{"Category":"Drinking Water","Place_Name":"Yadav Raydih, Chandan","Latitude":24.59933,"Longitude":86.70630},
{"Category":"Drinking Water","Place_Name":"Harkar Dharmshala ","Latitude":24.62440,"Longitude":86.70605},
{"Category":"Drinking Water","Place_Name":"Dumma Jharkhand Border, Chandan","Latitude":24.57388,"Longitude":86.70019}
]}