{"sightings":[
{"Category":"Hand Pump","Place_Name":"Ashiya Chak Moad","Latitude":25.20344,"Longitude":86.715219},
{"Category":"Hand Pump","Place_Name":"Kathpulwa 1","Latitude":25.240092,"Longitude":86.729112},
{"Category":"Hand Pump","Place_Name":"Kathpulwa 2","Latitude":25.239267,"Longitude":86.728543},
{"Category":"Hand Pump","Place_Name":"Kath Pulwa 3","Latitude":25.234035,"Longitude":86.7266867},
{"Category":"Hand Pump","Place_Name":"Kamray Chauk","Latitude":25.1871861,"Longitude":86.7092073},
{"Category":"Hand Pump","Place_Name":"Munger Gate ","Latitude":25.1871861,"Longitude":86.7092073},
{"Category":"Hand Pump","Place_Name":"Kamray 1","Latitude":25.1871861,"Longitude":86.7092073},
{"Category":"Hand Pump","Place_Name":"Masumganj Chauk","Latitude":25.1847251,"Longitude":86.7083156},
{"Category":"Hand Pump","Place_Name":"Kamray 2","Latitude":25.1847251,"Longitude":86.7083156},
{"Category":"Hand Pump","Place_Name":"Masumganj ","Latitude":25.1758688,"Longitude":86.7089222},
{"Category":"Hand Pump","Place_Name":"Masumganj Chauk","Latitude":25.1847251,"Longitude":86.7083156},
{"Category":"Hand Pump","Place_Name":"Chafa","Latitude":25.1725254,"Longitude":86.7071436},
{"Category":"Hand Pump ","Place_Name":"Rahmatpur","Latitude":25.1626702,"Longitude":86.7014862},
{"Category":"Hand Pump","Place_Name":"Asarganj","Latitude":25.1479086,"Longitude":86.6945739},
{"Category":"Hand Pump","Place_Name":"Lakhanpur 1","Latitude":25.144777,"Longitude":86.692356},
{"Category":"Hand Pump","Place_Name":"Lakhanpur 2","Latitude":25.1307317,"Longitude":86.6868533},
{"Category":"Hand Pump","Place_Name":"Lakhanpur 3","Latitude":25.1370534,"Longitude":86.6877722},
{"Category":"Hand Pump","Place_Name":"Lakhanpur 4","Latitude":25.1307317,"Longitude":86.6868533},
{"Category":"Hand Pump","Place_Name":"Lakhanpur 5","Latitude":25.1276413,"Longitude":86.6864106}

]}