{"sightings":[
{"Category":"Health Centre","Place_Name":"Sidhi Ghat","Latitude":25.251392,"Longitude":86.737249},
{"Category":"Health Centre","Place_Name":"Jahaj Ghat","Latitude":25.252803,"Longitude":86.739038},
{"Category":"Health Centre","Place_Name":"Krishnagadh","Latitude":25.243708,"Longitude":86.7278927},
{"Category":"Health Centre","Place_Name":"Ashiya Chak Moad","Latitude":25.20344,"Longitude":86.715219},
{"Category":"Health Centre","Place_Name":"Rampur Kamray","Latitude":25.1962278,"Longitude":86.7125609},
{"Category":"Health Centre","Place_Name":"Kamray Chowk","Latitude":25.1871861,"Longitude":86.7092073},
{"Category":"Health Centre","Place_Name":"Masumganj Chauk","Latitude":25.1847251,"Longitude":86.7083156},
{"Category":"Health Centre","Place_Name":"Block Hospital","Latitude":25.1847251,"Longitude":86.7083156},
{"Category":"Health Centre","Place_Name":"Dhandhi Belary","Latitude":25.1308921,"Longitude":86.6868864},
{"Category":"Health Centre","Place_Name":"Dhandhi Belary","Latitude":25.1307317,"Longitude":86.6868533},
{"Category":"Health Centre","Place_Name":"Teghra Fall","Latitude":25.1276413,"Longitude":86.6864106},
{"Category":"Health Centre","Place_Name":"Tegda Fall","Latitude":25.1248495,"Longitude":86.6854354},
{"Category":"Health Centre","Place_Name":"Shivlok Dharmshala Belhar","Latitude":24.92989,"Longitude":86.65425},
{"Category":"Health Centre","Place_Name":"Dhouri Dharmshala Belhar","Latitude":24.97012,"Longitude":86.73398},
{"Category":"Health Centre","Place_Name":"Jilebiyamor Dharmshala Belhar","Latitude":24.89705,"Longitude":86.66308},
{"Category":"Health Centre","Place_Name":"Samudayik Bhawan Ghuthiya Chandan","Latitude":24.83453,"Longitude":86.66603},
{"Category":"Health Centre","Place_Name":"Abrakha Dharmshala Belhar","Latitude":24.79563,"Longitude":86.68830},
{"Category":"Health Centre","Place_Name":"Kanwariya Dharmshala Katoriya","Latitude":24.75124,"Longitude":86.70373},
{"Category":"Health Centre","Place_Name":"Jamua Dharmshala Katoriya","Latitude":24.74015,"Longitude":86.71031},
{"Category":"Health Centre","Place_Name":"Indrawan Dharmshala Katoriya","Latitude":24.67530,"Longitude":86.70270},
{"Category":"Health Centre","Place_Name":"Godihari Dharmshala","Latitude":24.61627,"Longitude":86.70595},
{"Category":"Health Centre","Place_Name":"Primary Health Centre Godihari","Latitude":24.62442,"Longitude":86.70610},
{"Category":"Health Centre","Place_Name":"Marwari Yuva Manch","Latitude":25.5011405,"Longitude":86.466171}
]}