{"sightings":[
{"Category":"Stay Place","Place_Name":"Sitarampur 1","Latitude":25.2443267,"Longitude":86.72804},
{"Category":"Stay Place","Place_Name":"Sitarampur 2","Latitude":25.23914,"Longitude":86.728625},
{"Category":"Stay Place","Place_Name":"Sitarampur 3","Latitude":25.2373333,"Longitude":86.7279817},
{"Category":"Stay Place","Place_Name":"Naunsar 1","Latitude":25.219605,"Longitude":86.72134},
{"Category":"Stay Place","Place_Name":"Naunsar 2","Latitude":25.214345,"Longitude":86.719355},
{"Category":"Stay Place","Place_Name":"Ashiya Chak Modi","Latitude":25.20344,"Longitude":86.715219},
{"Category":"Stay Place","Place_Name":"Kamray Chauk","Latitude":25.1962278,"Longitude":86.7125609},
{"Category":"Stay Place","Place_Name":"Munger","Latitude":25.1850602,"Longitude":86.7085205},
{"Category":"Stay Place","Place_Name":"Masumganj Chauk","Latitude":25.1850602,"Longitude":86.7085205},
{"Category":"Stay Place","Place_Name":"Asarganj","Latitude":25.1479086,"Longitude":86.6945739},
{"Category":"Stay Place","Place_Name":"Dhandhi Belary","Latitude":25.1308921,"Longitude":86.6868864},
{"Category":"Stay Place","Place_Name":"Rahmatpur","Latitude":25.1554963,"Longitude":86.6302714},
{"Category":"Stay Place","Place_Name":"Daspasiya Dharmshala Belhar","Latitude":24.92248,"Longitude":86.65957},
{"Category":"Stay Place","Place_Name":"Shivlok Dharmshala Belhar","Latitude":24.92990,"Longitude":86.65417},
{"Category":"Stay Place","Place_Name":"Mahkara Dharmshala Belhar","Latitude":24.93450,"Longitude":86.64798},
{"Category":"Stay Place","Place_Name":"Joripar Dharmshala Belhar","Latitude":24.95566,"Longitude":86.63740},
{"Category":"Stay Place","Place_Name":"Dhouri Dharmshala Belhar","Latitude":24.97012,"Longitude":86.63398},
{"Category":"Stay Place","Place_Name":"Chandan Nagar Dharmshala Belhar","Latitude":24.91143,"Longitude":86.65842},
{"Category":"Stay Place","Place_Name":"Purniya Dharmshala Belhar","Latitude":24.89923,"Longitude":86.66702},
{"Category":"Stay Place","Place_Name":"Jalebiyamor Dharmshala Belhar","Latitude":24.88700,"Longitude":86.66360},
{"Category":"Stay Place","Place_Name":"Dandi Ashram Kowadih Chandan","Latitude":24.86808,"Longitude":86.66721},
{"Category":"Stay Place","Place_Name":"Kamarthua Dharmshala Tangeswar Chandan","Latitude":24.85851,"Longitude":86.66792},
{"Category":"Stay Place","Place_Name":"Dandi Ashram Sewa Samiti Ghuthiya Chandan","Latitude":24.83537,"Longitude":86.66548},
{"Category":"Stay Place","Place_Name":"Dinanath Bolbam Sewa Samiti Dharmshala Ghuthiya Chandan","Latitude":24.83545,"Longitude":86.66558},
{"Category":"Stay Place","Place_Name":"Baidyanath Lok Dharmshala Gerua Chandan","Latitude":24.82293,"Longitude":86.66965},
{"Category":"Stay Place","Place_Name":"Yatri Hotel Gerua Chandan","Latitude":24.81975,"Longitude":86.67205},
{"Category":"Stay Place","Place_Name":"Dalsingh Sarai Sewa Samiti Abrakha","Latitude":24.79887,"Longitude":86.68547},
{"Category":"Stay Place","Place_Name":"Abrakha Dharmshala Chandan","Latitude":24.79553,"Longitude":86.68836},
{"Category":"Stay Place","Place_Name":"Kanwaria Dharmshala Katoriya","Latitude":24.75110,"Longitude":86.70366},
{"Category":"Stay Place","Place_Name":"Dalsingh Sarai Dharmshala Tarpatiya","Latitude":24.77795,"Longitude":86.69081},
{"Category":"Stay Place","Place_Name":"Jamua Dharmshala Katoriya","Latitude":24.74017,"Longitude":86.71015},
{"Category":"Stay Place","Place_Name":"Mithla Kanwariya Dharmshala Rajwada Katoria","Latitude":24.73078,"Longitude":86.71007},
{"Category":"Stay Place","Place_Name":"Kurawa","Latitude":24.75441,"Longitude":86.66360},
{"Category":"Stay Place","Place_Name":"Inarawaran Sarkari Dharmshala Inarawaran Katoria","Latitude":24.67524,"Longitude":86.70257},
{"Category":"Stay Place","Place_Name":"Natmal Agrawal Smriti  Dharmshala Inarawaran","Latitude":24.67194,"Longitude":86.70400},
{"Category":"Stay Place","Place_Name":"Sri Baba Bhut Nath Sewa Niketan Dharmshala Inarawarn","Latitude":24.66945,"Longitude":86.70275},
{"Category":"Stay Place","Place_Name":"Godihari Dharmshala ","Latitude":24.61604,"Longitude":86.70528},
{"Category":"Stay Place","Place_Name":"Baidehi  Dharmshala Durbiniya","Latitude":24.60975,"Longitude":86.70559},
{"Category":"Stay Place","Place_Name":"Aanand Dham Aasram  Dharmshala Durbiniya","Latitude":24.60992,"Longitude":86.70540},
{"Category":"Stay Place","Place_Name":"Sarvjanik Kanwariya Dharmshala Godihari","Latitude":24.62446,"Longitude":86.70615},
{"Category":"Stay Place","Place_Name":"Asham Dharmshala Godihari","Latitude":24.62612,"Longitude":86.70610},
{"Category":"Stay Place","Place_Name":"Pataniya Dharmshala Jhajha Chandan","Latitude":24.58823,"Longitude":86.70333},
{"Category":"Stay Place","Place_Name":"Dandi Asharam Bouskitad Chandan","Latitude":24.58067,"Longitude":86.70103},
{"Category":"Stay Place","Place_Name":"Shiv Shakti Bol Bam Sewa Samiti Dharmshala BhulBhulaiya","Latitude":24.65370,"Longitude":86.69808},
{"Category":"Stay Place","Place_Name":"Asham Bangal Kanwariya Samiti Inarawaran Katoriya","Latitude":24.66551,"Longitude":86.70121}
]}