{"sightings":[
{"Category":"Toilet","Place_Name":"Naradpur","Latitude":25.2465393,"Longitude":86.7500593},
{"Category":"Toilet","Place_Name":"Kishangad","Latitude":25.2466467,"Longitude":86.7349233},
{"Category":"Toilet","Place_Name":"Sitarampur ","Latitude":25.23914,"Longitude":86.728625},
{"Category":"Toilet","Place_Name":"Naunsar","Latitude":25.2098367,"Longitude":86.7176917},
{"Category":"Toilet","Place_Name":"Ashiya Chak Modi","Latitude":25.20344,"Longitude":86.715219},
{"Category":"Toilet","Place_Name":"Kamray Chauk","Latitude":25.19062,"Longitude":86.7105231},
{"Category":"Toilet","Place_Name":"Kamray 1","Latitude":25.1871861,"Longitude":86.7092073},
{"Category":"Toilet","Place_Name":"Masumganj Chauk","Latitude":25.1850602,"Longitude":86.7085205},
{"Category":"Toilet","Place_Name":"Munger","Latitude":25.1850602,"Longitude":86.7085205},
{"Category":"Toilet","Place_Name":"Kamray 2","Latitude":25.1847251,"Longitude":86.7083156},
{"Category":"Toilet","Place_Name":"Masumganj 1","Latitude":25.1769018,"Longitude":86.7088374},
{"Category":"Toilet","Place_Name":"Masumganj 2","Latitude":25.1769018,"Longitude":86.7088374},
{"Category":"Toilet","Place_Name":"Rahmatpur","Latitude":25.1696157,"Longitude":86.7056024},
{"Category":"Toilet","Place_Name":"Asarganj","Latitude":25.1479086,"Longitude":86.6945739},
{"Category":"Toilet","Place_Name":"Lakhanpur 1","Latitude":25.144777,"Longitude":86.692356},
{"Category":"Toilet","Place_Name":"Dhandhi Belary","Latitude":25.1308921,"Longitude":86.6868864},
{"Category":"Toilet","Place_Name":"Lakhanpur 2","Latitude":25.1307317,"Longitude":86.6868533},
{"Category":"Toilet","Place_Name":"Lakhanpur 3","Latitude":25.1370534,"Longitude":86.6877722},
{"Category":"Toilet","Place_Name":"Teghda fall 1","Latitude":25.1248495,"Longitude":86.6854354},
{"Category":"Toilet","Place_Name":"Teghda fall 2","Latitude":25.1229696,"Longitude":86.6857674}
]}